{"type": "FeatureCollection", "features": [ {"type": "Feature", "properties": {"norad_id": 37834, "name": "INTELSAT 18 (IS-18)", "group": "intelsat", "lat": -0.030624350727187902, "lon": -174.17558105658685, "alt_km": 35782.695858763786, "timestamp": "2025-12-02T19:35:50.229486+00:00", "meta": {"OBJECT_NAME": "INTELSAT 18 (IS-18)", "OBJECT_ID": "2011-056A", "EPOCH": "2025-12-02T11:35:38.855904", "MEAN_MOTION": 1.00271002, "ECCENTRICITY": 0.0002115, "INCLINATION": 0.0191, "RA_OF_ASC_NODE": 325.0376, "ARG_OF_PERICENTER": 287.2555, "MEAN_ANOMALY": 173.206, "EPHEMERIS_TYPE": 0, "CLASSIFICATION_TYPE": "U", "NORAD_CAT_ID": 37834, "ELEMENT_SET_NO": 999, "REV_AT_EPOCH": 5183, "BSTAR": 0, "MEAN_MOTION_DOT": 7.3e-07, "MEAN_MOTION_DDOT": 0}, "tle": {"line1": "1 37834U 11056A   25336.48308861  .00000073  00000+0  00000+0 0  9993", "line2": "2 37834   0.0191 325.0376 0002115 287.2555 173.2060  1.00271002 51836"}}, "geometry": {"type": "Point", "coordinates": [-174.17558105658685, -0.030624350727187902]}}, {"type": "Feature", "properties": {"norad_id": 38098, "name": "INTELSAT 22 (IS-22)", "group": "intelsat", "lat": 0.018443315884512996, "lon": 77.95711229350124, "alt_km": 35793.370779104225, "timestamp": "2025-12-02T19:35:50.229499+00:00", "meta": {"OBJECT_NAME": "INTELSAT 22 (IS-22)", "OBJECT_ID": "2012-011A", "EPOCH": "2025-12-02T08:59:30.072768", "MEAN_MOTION": 1.00271789, "ECCENTRICITY": 0.0001724, "INCLINATION": 0.0023, "RA_OF_ASC_NODE": 0.636, "ARG_OF_PERICENTER": 259.5903, "MEAN_ANOMALY": 18.2379, "EPHEMERIS_TYPE": 0, "CLASSIFICATION_TYPE": "U", "NORAD_CAT_ID": 38098, "ELEMENT_SET_NO": 999, "REV_AT_EPOCH": 521, "BSTAR": 0, "MEAN_MOTION_DOT": -3.8e-07, "MEAN_MOTION_DDOT": 0}, "tle": {"line1": "1 38098U 12011A   25336.37465362 -.00000038  00000+0  00000+0 0  9998", "line2": "2 38098   0.0023   0.6360 0001724 259.5903  18.2379  1.00271789  5210"}}, "geometry": {"type": "Point", "coordinates": [77.95711229350124, 0.018443315884512996]}}, {"type": "Feature", "properties": {"norad_id": 38356, "name": "INTELSAT 19 (IS-19)", "group": "intelsat", "lat": -0.020135331245990675, "lon": 171.82690467824693, "alt_km": 35784.88860699956, "timestamp": "2025-12-02T19:35:50.229510+00:00", "meta": {"OBJECT_NAME": "INTELSAT 19 (IS-19)", "OBJECT_ID": "2012-030A", "EPOCH": "2025-12-02T11:51:38.549952", "MEAN_MOTION": 1.00271622, "ECCENTRICITY": 0.0003442, "INCLINATION": 0.0098, "RA_OF_ASC_NODE": 317.9936, "ARG_OF_PERICENTER": 299.0706, "MEAN_ANOMALY": 158.4635, "EPHEMERIS_TYPE": 0, "CLASSIFICATION_TYPE": "U", "NORAD_CAT_ID": 38356, "ELEMENT_SET_NO": 999, "REV_AT_EPOCH": 4847, "BSTAR": 0, "MEAN_MOTION_DOT": -3.6e-07, "MEAN_MOTION_DDOT": 0}, "tle": {"line1": "1 38356U 12030A   25336.49419618 -.00000036  00000+0  00000+0 0  9990", "line2": "2 38356   0.0098 317.9936 0003442 299.0706 158.4635  1.00271622 48474"}}, "geometry": {"type": "Point", "coordinates": [171.82690467824693, -0.020135331245990675]}}, {"type": "Feature", "properties": {"norad_id": 38740, "name": "INTELSAT 20 (IS-20)", "group": "intelsat", "lat": 0.03160071407233439, "lon": 74.2893389640955, "alt_km": 35792.710141138305, "timestamp": "2025-12-02T19:35:50.229537+00:00", "meta": {"OBJECT_NAME": "INTELSAT 20 (IS-20)", "OBJECT_ID": "2012-043A", "EPOCH": "2025-12-02T00:24:39.918816", "MEAN_MOTION": 1.00268447, "ECCENTRICITY": 0.00030847, "INCLINATION": 0.0115, "RA_OF_ASC_NODE": 324.2147, "ARG_OF_PERICENTER": 225.9347, "MEAN_ANOMALY": 315.6275, "EPHEMERIS_TYPE": 0, "CLASSIFICATION_TYPE": "U", "NORAD_CAT_ID": 38740, "ELEMENT_SET_NO": 999, "REV_AT_EPOCH": 4877, "BSTAR": 0, "MEAN_MOTION_DOT": 0, "MEAN_MOTION_DDOT": 0}, "tle": {"line1": "1 38740U 12043A   25336.01712869  .00000000  00000+0  00000+0 0  9993", "line2": "2 38740   0.0115 324.2147 0003084 225.9347 315.6275  1.00268447 48778"}}, "geometry": {"type": "Point", "coordinates": [74.2893389640955, 0.03160071407233439]}}, {"type": "Feature", "properties": {"norad_id": 38749, "name": "INTELSAT 21 (IS-21)", "group": "intelsat", "lat": -0.004568855832648372, "lon": -52.12133554182072, "alt_km": 35782.676831522476, "timestamp": "2025-12-02T19:35:50.229551+00:00", "meta": {"OBJECT_NAME": "INTELSAT 21 (IS-21)", "OBJECT_ID": "2012-045A", "EPOCH": "2025-12-02T08:22:18.633792", "MEAN_MOTION": 1.00269456, "ECCENTRICITY": 0.0002416, "INCLINATION": 0.0155, "RA_OF_ASC_NODE": 315.7121, "ARG_OF_PERICENTER": 285.7703, "MEAN_ANOMALY": 257.5597, "EPHEMERIS_TYPE": 0, "CLASSIFICATION_TYPE": "U", "NORAD_CAT_ID": 38749, "ELEMENT_SET_NO": 999, "REV_AT_EPOCH": 4855, "BSTAR": 0, "MEAN_MOTION_DOT": -2.64e-06, "MEAN_MOTION_DDOT": 0}, "tle": {"line1": "1 38749U 12045A   25336.34882678 -.00000264  00000+0  00000+0 0  9999", "line2": "2 38749   0.0155 315.7121 0002416 285.7703 257.5597  1.00269456 48554"}}, "geometry": {"type": "Point", "coordinates": [-52.12133554182072, -0.004568855832648372]}}, {"type": "Feature", "properties": {"norad_id": 38867, "name": "INTELSAT 23 (IS-23)", "group": "intelsat", "lat": -0.013372120457738012, "lon": -47.13185498654515, "alt_km": 35787.7766757576, "timestamp": "2025-12-02T19:35:50.229564+00:00", "meta": {"OBJECT_NAME": "INTELSAT 23 (IS-23)", "OBJECT_ID": "2012-057A", "EPOCH": "2025-12-02T08:23:48.492384", "MEAN_MOTION": 1.00270434, "ECCENTRICITY": 0.0001777, "INCLINATION": 0.0447, "RA_OF_ASC_NODE": 122.8746, "ARG_OF_PERICENTER": 90.0275, "MEAN_ANOMALY": 291.5085, "EPHEMERIS_TYPE": 0, "CLASSIFICATION_TYPE": "U", "NORAD_CAT_ID": 38867, "ELEMENT_SET_NO": 999, "REV_AT_EPOCH": 4798, "BSTAR": 0, "MEAN_MOTION_DOT": -2.64e-06, "MEAN_MOTION_DDOT": 0}, "tle": {"line1": "1 38867U 12057A   25336.34986681 -.00000264  00000+0  00000+0 0  9992", "line2": "2 38867   0.0447 122.8746 0001777  90.0275 291.5085  1.00270434 47983"}}, "geometry": {"type": "Point", "coordinates": [-47.13185498654515, -0.013372120457738012]}}, {"type": "Feature", "properties": {"norad_id": 39360, "name": "FM-6", "group": "intelsat", "lat": 0.013250269714282432, "lon": -110.27407026447575, "alt_km": 35783.41880079509, "timestamp": "2025-12-02T19:35:50.229576+00:00", "meta": {"OBJECT_NAME": "FM-6", "OBJECT_ID": "2013-058A", "EPOCH": "2025-12-02T10:37:38.766720", "MEAN_MOTION": 1.00270976, "ECCENTRICITY": 0.0002928, "INCLINATION": 0.006, "RA_OF_ASC_NODE": 110.7073, "ARG_OF_PERICENTER": 62.3341, "MEAN_ANOMALY": 301.7644, "EPHEMERIS_TYPE": 0, "CLASSIFICATION_TYPE": "U", "NORAD_CAT_ID": 39360, "ELEMENT_SET_NO": 999, "REV_AT_EPOCH": 4410, "BSTAR": 0, "MEAN_MOTION_DOT": 4e-08, "MEAN_MOTION_DDOT": 0}, "tle": {"line1": "1 39360U 13058A   25336.44280980  .00000004  00000+0  00000+0 0  9994", "line2": "2 39360   0.0060 110.7073 0002928  62.3341 301.7644  1.00270976 44104"}}, "geometry": {"type": "Point", "coordinates": [-110.27407026447575, 0.013250269714282432]}}, {"type": "Feature", "properties": {"norad_id": 40271, "name": "INTELSAT 30 (IS-30)", "group": "intelsat", "lat": -0.027344795924183804, "lon": -89.18682178880978, "alt_km": 35791.90141959285, "timestamp": "2025-12-02T19:35:50.229589+00:00", "meta": {"OBJECT_NAME": "INTELSAT 30 (IS-30)", "OBJECT_ID": "2014-062A", "EPOCH": "2025-12-02T01:21:41.954976", "MEAN_MOTION": 1.00274289, "ECCENTRICITY": 0.00015346, "INCLINATION": 0.0117, "RA_OF_ASC_NODE": 354.2124, "ARG_OF_PERICENTER": 95.5309, "MEAN_ANOMALY": 266.8075, "EPHEMERIS_TYPE": 0, "CLASSIFICATION_TYPE": "U", "NORAD_CAT_ID": 40271, "ELEMENT_SET_NO": 999, "REV_AT_EPOCH": 480, "BSTAR": 0, "MEAN_MOTION_DOT": -1.3e-06, "MEAN_MOTION_DDOT": 0}, "tle": {"line1": "1 40271U 14062A   25336.05673559 -.00000130  00000+0  00000+0 0  9999", "line2": "2 40271   0.0117 354.2124 0001534  95.5309 266.8075  1.00274289  4809"}}, "geometry": {"type": "Point", "coordinates": [-89.18682178880978, -0.027344795924183804]}}, {"type": "Feature", "properties": {"norad_id": 40333, "name": "DIRECTV 14", "group": "intelsat", "lat": -0.025318918073117026, "lon": -93.3734508431059, "alt_km": 35785.07581503824, "timestamp": "2025-12-02T19:35:50.229601+00:00", "meta": {"OBJECT_NAME": "DIRECTV 14", "OBJECT_ID": "2014-078B", "EPOCH": "2025-12-02T08:59:15.225792", "MEAN_MOTION": 1.00270629, "ECCENTRICITY": 3.72e-05, "INCLINATION": 0.0093, "RA_OF_ASC_NODE": 318.2125, "ARG_OF_PERICENTER": 276.9162, "MEAN_ANOMALY": 231.9434, "EPHEMERIS_TYPE": 0, "CLASSIFICATION_TYPE": "U", "NORAD_CAT_ID": 40333, "ELEMENT_SET_NO": 999, "REV_AT_EPOCH": 4007, "BSTAR": 0, "MEAN_MOTION_DOT": -1.05e-06, "MEAN_MOTION_DDOT": 0}, "tle": {"line1": "1 40333U 14078B   25336.37448178 -.00000105  00000+0  00000+0 0  9999", "line2": "2 40333   0.0093 318.2125 0000372 276.9162 231.9434  1.00270629 40078"}}, "geometry": {"type": "Point", "coordinates": [-93.3734508431059, -0.025318918073117026]}}, {"type": "Feature", "properties": {"norad_id": 40663, "name": "DIRECTV 15", "group": "intelsat", "lat": -0.02056301541205751, "lon": -97.0263902544276, "alt_km": 35785.58746897356, "timestamp": "2025-12-02T19:35:50.229612+00:00", "meta": {"OBJECT_NAME": "DIRECTV 15", "OBJECT_ID": "2015-026A", "EPOCH": "2025-12-01T15:02:03.106176", "MEAN_MOTION": 1.00270344, "ECCENTRICITY": 2.258e-05, "INCLINATION": 0.0414, "RA_OF_ASC_NODE": 104.2594, "ARG_OF_PERICENTER": 141.9125, "MEAN_ANOMALY": 307.2149, "EPHEMERIS_TYPE": 0, "CLASSIFICATION_TYPE": "U", "NORAD_CAT_ID": 40663, "ELEMENT_SET_NO": 999, "REV_AT_EPOCH": 3848, "BSTAR": 0, "MEAN_MOTION_DOT": -8.1e-07, "MEAN_MOTION_DDOT": 0}, "tle": {"line1": "1 40663U 15026A   25335.62642484 -.00000081  00000+0  00000+0 0  9995", "line2": "2 40663   0.0414 104.2594 0000225 141.9125 307.2149  1.00270344 38487"}}, "geometry": {"type": "Point", "coordinates": [-97.0263902544276, -0.02056301541205751]}}]}